FENGYUN 2H              
1 43491U 18050A   26169.62542471 -.00000137  00000+0  00000+0 0  9990
2 43491   3.0356  79.0525 0001967 138.2508 354.1055  1.00269447 29454
METOP-C                 
1 43689U 18087A   26169.61656975  .00000082  00000+0  57450-4 0  9997
2 43689  98.6645 229.1941 0001814 127.6744 232.4598 14.21512496395031
GEO-KOMPSAT-2A          
1 43823U 18100A   26169.62698715 -.00000350  00000+0  00000+0 0  9995
2 43823   0.0492 157.8937 0001849 289.7421 173.1968  1.00269254 27645
METEOR-M2 2             
1 44387U 19038A   26169.57934906  .00000177  00000+0  96213-4 0  9993
2 44387  98.9143 156.8857 0002036  44.8123 315.3219 14.24366772361494
ARKTIKA-M 1             
1 47719U 21016A   26168.49069990 -.00000210  00000+0  00000+0 0  9999
2 47719  63.2922  57.5948 7288528 269.9420  14.6012  2.00622504 38796
FENGYUN 3E              
1 49008U 21062A   26169.61103505 -.00000106  00000+0 -29052-4 0  9997
2 49008  98.7488 173.0033 0002839  82.9785 277.1714 14.19904260256788
GOES 18                 
1 51850U 22021A   26169.58256898  .00000090  00000+0  00000+0 0  9998
2 51850   0.0077  73.6037 0000337  71.6585 194.2700  1.00271167  6606
NOAA 21 (JPSS-2)        
1 54234U 22150A   26169.58488626  .00000045  00000+0  41814-4 0  9999
2 54234  98.7058 108.3507 0001750 150.7122 209.4152 14.19565657186740
METEOSAT-12 (MTG-I1)    
1 54743U 22170C   26169.32446212 -.00000014  00000+0  00000+0 0  9997
2 54743   0.7400  23.2065 0003214  71.0428 288.7161  1.00272916 12987
TIANMU-1 03             
1 55973U 23039A   26169.73161931  .00011912  00000+0  23512-3 0  9990
2 55973  97.5236 343.7606 0004157  95.2757 264.8967 15.47320822181077
TIANMU-1 04             
1 55974U 23039B   26169.65585477  .00012343  00000+0  23855-3 0  9996
2 55974  97.5171 342.8358 0004843  91.9365 268.2440 15.47917921181076
TIANMU-1 05             
1 55975U 23039C   26169.58311000  .00011528  00000+0  22821-3 0  9994
2 55975  97.5219 343.2207 0004031 111.8397 248.3282 15.47243904181036
TIANMU-1 06             
1 55976U 23039D   26169.59467524  .00012020  00000+0  23316-3 0  9997
2 55976  97.5224 343.8700 0004383 107.1202 253.0528 15.47820110181069
FENGYUN 3G              
1 56232U 23055A   26169.58668564  .00018824  00000+0  30570-3 0  9995
2 56232  49.9937 338.8093 0007030 302.3922  57.6364 15.52683224180228
METEOR-M2 3             
1 57166U 23091A   26169.64424212  .00000028  00000+0  30909-4 0  9993
2 57166  98.6090 224.5928 0004423 151.7298 208.4122 14.24047010154728
TIANMU-1 07             
1 57399U 23101A   26169.73537821  .00004863  00000+0  17093-3 0  9993
2 57399  97.2586 220.3683 0004157 118.3671 241.7990 15.29822364161888
TIANMU-1 08             
1 57400U 23101B   26169.57119735  .00004973  00000+0  17467-3 0  9995
2 57400  97.2576 219.9783 0005634 111.8495 248.3346 15.29825797161856
TIANMU-1 09             
1 57401U 23101C   26169.61999199  .00005014  00000+0  17595-3 0  9990
2 57401  97.2533 219.4410 0004659 123.4443 236.7244 15.29857596161861
TIANMU-1 10             
1 57402U 23101D   26169.58766031  .00005106  00000+0  17926-3 0  9994
2 57402  97.2613 220.4613 0006230 122.6643 237.5200 15.29829016161854
FENGYUN 3F              
1 57490U 23111A   26169.73585058  .00000050  00000+0  44151-4 0  9991
2 57490  98.6842 239.7157 0001589  92.3106 267.8253 14.19939385149089
ARKTIKA-M 2             
1 58584U 23198A   26168.75920439  .00000145  00000+0  00000+0 0  9993
2 58584  63.2243 154.2920 6902344 267.4286  18.7609  2.00612717 18330
TIANMU-1 11             
1 58645U 23205A   26169.62622279  .00004333  00000+0  16608-3 0  9996
2 58645  97.3443 191.1605 0008776  12.4102 347.7352 15.27008025137744
TIANMU-1 12             
1 58646U 23205B   26169.72768395  .00004524  00000+0  17352-3 0  9997
2 58646  97.3431 191.0159 0006542 358.1455   1.9759 15.26973815137742
TIANMU-1 13             
1 58647U 23205C   26169.62893784  .00004391  00000+0  16928-3 0  9998
2 58647  97.3460 191.1914 0005730 335.8013  24.2956 15.26826280137723
TIANMU-1 14             
1 58648U 23205D   26169.61410223  .00004513  00000+0  17367-3 0  9995
2 58648  97.3395 190.3575 0006677 340.0627  20.0350 15.26870894137727
TIANMU-1 19             
1 58660U 23208A   26169.59364836  .00006400  00000+0  21235-3 0  9993
2 58660  97.4510 285.9004 0003729 321.9176  38.1801 15.31591036137546
TIANMU-1 20             
1 58661U 23208B   26169.56506853  .00006278  00000+0  20074-3 0  9991
2 58661  97.4452 286.5084 0005903 328.1882  31.9002 15.32781178137639
TIANMU-1 21             
1 58662U 23208C   26169.55133707  .00007438  00000+0  22070-3 0  9992
2 58662  97.4512 289.1810 0005864 318.0096  42.0697 15.35096288137776
TIANMU-1 22             
1 58663U 23208D   26169.57592215  .00005837  00000+0  19703-3 0  9998
2 58663  97.4506 285.8175 0003054 358.7867   1.3366 15.31073695137542
TIANMU-1 15             
1 58700U 24004A   26169.60579089  .00004443  00000+0  17023-3 0  9998
2 58700  97.4669 355.7959 0006559 357.4669   2.6536 15.27035319135996
TIANMU-1 16             
1 58701U 24004B   26169.59528333  .00004480  00000+0  17309-3 0  9991
2 58701  97.4615 355.0207 0005689   3.1420 356.9853 15.26760188135995
TIANMU-1 17             
1 58702U 24004C   26169.77735816  .00004468  00000+0  17262-3 0  9992
2 58702  97.4643 355.6882 0005371   9.0184 351.1150 15.26761041136012
TIANMU-1 18             
1 58703U 24004D   26169.75348076  .00004240  00000+0  16273-3 0  9998
2 58703  97.4661 355.9208 0003881  10.3147 349.8171 15.27018059136018
INSAT-3DS               
1 58990U 24033A   26169.41212234 -.00000162  00000+0  00000+0 0  9994
2 58990   0.0448 107.3413 0001055 329.1695  60.6037  1.00271262 47086
METEOR-M2 4             
1 59051U 24039A   26169.59027419  .00000006  00000+0  22547-4 0  9998
2 59051  98.7011 128.8707 0007370 157.0729 203.0779 14.22429656119469
GOES 19                 
1 60133U 24119A   26169.59478904 -.00000254  00000+0  00000+0 0  9990
2 60133   0.0409 169.8991 0000352   4.4442 231.4208  1.00270829  6970
MTG-S1                  
1 64723U 25143A   26168.96740449 -.00000037  00000+0  00000+0 0  9992
2 64723   0.6022 339.1600 0000787  17.8158 254.0253  1.00270537  3423
METOP-SGA1              
1 65159U 25172A   26167.15332899  .00000049  00000+0  42000-4 0  9997
2 65159  98.6644 226.8998 0000902  93.8213 266.3067 14.21509720 43644
FENGYUN 3H              
1 65815U 25219A   26169.59131362  .00000040  00000+0  39168-4 0  9992
2 65815  98.6768 110.3332 0001598  76.1674 283.9681 14.19920628 37580
OSCAR 7 (AO-7)          
1 07530U 74089B   26169.52022299 -.00000050  00000+0 -20354-4 0  9992
2 07530 101.9900 182.7808 0012587 127.6096  27.1345 12.53698129360686
PHASE 3B (AO-10)        
1 14129U 83058B   26168.36952042  .00000190  00000+0  00000+0 0  9993
2 14129  25.9123 219.5345 6010777 115.7182 316.6307  2.05868747295495
UOSAT 2 (UO-11)         
1 14781U 84021B   26169.36241971  .00000944  00000+0  10169-3 0  9999
2 14781  97.8058 134.9238 0007765 168.4730 191.6667 14.90785769257303
LUSAT (LO-19)           
1 20442U 90005G   26169.50756887  .00000077  00000+0  44240-4 0  9997
2 20442  98.8849 191.3496 0011194 197.0729 163.0080 14.34123547902580
EYESAT A (AO-27)        
1 22825U 93061C   26169.46827650  .00000074  00000+0  45262-4 0  9993
2 22825  98.6880 236.8814 0009544  96.4763 263.7506 14.30942580707187
ITAMSAT (IO-26)         
1 22826U 93061D   26169.44730700  .00000077  00000+0  45886-4 0  9996
2 22826  98.6829 236.7780 0010060  81.6233 278.6090 14.31369493707499
RADIO ROSTO (RS15)      
1 23439U 94085A   26169.62369556 -.00000041  00000+0  42691-4 0  9994
2 23439  64.8186 300.8928 0155980   3.6110 356.5903 11.27583454296069
JAS-2 (FO-29)           
1 24278U 96046B   26169.05046237 -.00000003  00000+0  30027-4 0  9998
2 24278  98.5238  17.8043 0350914  94.1986 269.9331 13.53274469473283
TECHSAT 1B (GO-32)      
1 25397U 98043D   26169.46924976  .00000037  00000+0  36201-4 0  9996
2 25397  99.0067 162.2602 0001130 160.0022 200.1201 14.24428629451518
ISS (ZARYA)             
1 25544U 98067A   26169.47955540  .00008910  00000+0  16794-3 0  9990
2 25544  51.6334 293.6965 0004755 201.5062 158.5728 15.49298053571950
PCSAT (NO-44)           
1 26931U 01043C   26169.48637696  .00000076  00000+0  59455-4 0  9996
2 26931  67.0504 240.9116 0006079 264.6354  95.4054 14.31956505290636
SAUDISAT 1C (SO-50)     
1 27607U 02058C   26169.36907803  .00000788  00000+0  11046-3 0  9994
2 27607  64.5511 125.3282 0075193 262.2562  97.0002 14.83049237264639
CUTE-1 (CO-55)          
1 27844U 03031E   26169.02064842  .00000221  00000+0  11471-3 0  9993
2 27844  98.6736 177.5689 0009609 175.5784 184.5482 14.24336174191794
CUBESAT XI-IV (CO-57)   
1 27848U 03031J   26168.93924090  .00000186  00000+0  10079-3 0  9999
2 27848  98.6765 177.2007 0009073 194.7196 165.3719 14.23621196191482
MOZHAETS 4 (RS22)       
1 27939U 03042A   26169.64336317  .00000947  00000+0  15407-3 0  9995
2 27939  98.3464 354.0428 0009918 264.5373 184.1435 14.73470261215761
CUBESAT XI-V            
1 28895U 05043F   26168.94617719  .00001113  00000+0  18286-3 0  9994
2 28895  98.2987 324.5839 0013704 198.2082 161.8635 14.72633352101868
CUTE-1.7+APD II (CO-65) 
1 32785U 08021C   26169.57458570  .00004310  00000+0  27313-3 0  9997
2 32785  97.8275 151.0219 0009610  34.4891 325.6959 15.09461529985406
SEEDS II (CO-66)        
1 32791U 08021J   26169.44123303  .00014056  00000+0  44622-3 0  9993
2 32791  97.7517 167.3987 0000889 357.5135   2.6101 15.32786684987481
YUBILEINY (RS30)        
1 32953U 08025A   26169.78850140 -.00000016  00000+0 -18711-3 0  9993
2 32953  82.5037 354.4435 0018799 310.2288  49.7147 12.43179339819894
KKS-1 (KISEKI)          
1 33499U 09002H   26169.53845444  .00001021  00000+0  13214-3 0  9997
2 33499  98.1189  92.0021 0006469 290.6566  69.3953 14.83127017936398
